#aV2021  6 15  0  0  0.00000000     288 DD+AD WGS84 FIT  NGA
## 2162 172800.00000000   300.00000000 59380 0.0000000000000
+   31     1  2  3  4  5  6  7  8  9 10 12 13 14 15 16 17 18
+         19 20 21 22 23 24 25 26 27 28 29 30 31 32  0  0  0
+          0  0  0  0  0  0  0  0  0  0  0  0  0  0  0  0  0
+          0  0  0  0  0  0  0  0  0  0  0  0  0  0  0  0  0
+          0  0  0  0  0  0  0  0  0  0  0  0  0  0  0  0  0
++         2  2  2  2  2  2  2  2  2  2  2  2  2  2  2  2  2
++         2  2  2  2  2  2  2  2  2  2  2  2  2  2  0  0  0
++         0  0  0  0  0  0  0  0  0  0  0  0  0  0  0  0  0
++         0  0  0  0  0  0  0  0  0  0  0  0  0  0  0  0  0
++         0  0  0  0  0  0  0  0  0  0  0  0  0  0  0  0  0
%c cc cc ccc ccc cccc cccc cccc cccc ccccc ccccc ccccc ccccc
%c cc cc ccc ccc cccc cccc cccc cccc ccccc ccccc ccccc ccccc
%f  0.0000000  0.000000000  0.00000000000  0.000000000000000
%f  0.0000000  0.000000000  0.00000000000  0.000000000000000
%i    0    0    0    0      0      0      0      0         0
%i    0    0    0    0      0      0      0      0         0
/*      NGA, ST. LOUIS,MO.                                  
/*   EPHEMERIS COMPUTED FROM 2 DAYS OF DATA                 
/*   EPOCHA v6 SMOOTHER                                     
/*   G2139 IERS2010 SATIGS SATAPC                           
*  2021  6 15 16 35  0.00000000
P  1  15634.738887   1897.002094  21183.059820    657.576915                    
V  1   8880.702990  25908.441416  -8431.992962     -0.117150                    
P  2 -13787.220956 -21989.970872  -4833.820442   -612.572652                    
V  2   -344.446909  -7512.379290  31051.125339     -0.029013                    
P  3  20091.188943  -7739.116718  15387.574892   -192.812378                    
V  3 -11108.570240  16409.464899  22738.657346     -0.106632                    
P  4  25639.162628    189.053348  -7043.282808   -199.937314                    
V  4   8234.052578   4374.656634  29995.293855     -0.011435                    
P  5 -14719.189331  -5742.208553 -21530.283116    -45.031781                    
V  5  16094.635951 -21626.490508  -5093.986123     -0.011344                    
P  6  -6017.021767 -25405.936755   4765.907977     27.323865                    
V  6   4012.486541   4886.786098  31542.244740      0.046678                    
P  7  10143.970159 -13654.985511 -19913.450156    178.940857                    
V  7  10314.812772  24182.005194 -11617.939485      0.097266                    
P  8  25833.979643   6085.956674  -3154.674675    -25.175210                    
V  8  -4257.385511   1723.829667 -31361.587093     -0.014683                    
P  9  19372.000139  -8622.809966 -16069.148731   -351.234042                    
V  9  19776.319999   5036.632535  21192.941062     -0.018844                    
P 10  -9537.335836  22525.354762  10122.594010   -142.913240                    
V 10  -9979.984621   8312.933358 -28488.217690     -0.076184                    
P 12 -20169.975899   5246.555414  16131.831984    -55.384386                    
V 12  13195.807418 -16409.898241  21633.258658     -0.052291                    
P 13 -20995.642770 -13376.107140  -9587.242298    145.262148                    
V 13  12050.719342   1408.190797 -28617.827938      0.048701                    
P 14  10639.895145 -22199.046182   9918.237882     68.497723                    
V 14  10423.955953  -7595.538294 -28194.317179     -0.074333                    
P 15 -26329.485478  -3752.124885  -3243.855484   -142.185651                    
V 15   3829.267207  -3263.599741 -30448.018654      0.026267                    
P 16  10004.814801  11257.958075 -22110.054728   -341.747540                    
V 16 -19531.473539  19302.354472   1446.867613     -0.060482                    
P 17   4904.304977 -14184.118933  22340.345327    458.908458                    
V 17  26547.144643   6260.745749  -1886.122078      0.059629                    
P 18  -7933.706606  16835.020590 -18933.932284    346.587668                    
V 18  -9141.006943 -22253.149831 -16034.133857     -0.018242                    
P 19  -5239.460333 -15729.118567  20496.240598     13.760745                    
V 19  25812.391665   6423.449895  11246.099809      0.049832                    
P 20 -14100.113172  -6954.005480 -21391.672793    521.143556                    
V 20  13849.064828 -23478.912606  -1787.649464     -0.003743                    
P 21  18169.185272   9143.065751  18040.915392    125.217040                    
V 21   7795.089472  19906.826179 -18188.607621      0.024880                    
P 22  17236.941499   1189.944685  20313.101284   -587.750286                    
V 22 -13190.141029  21883.069828  10203.362966      0.096425                    
P 23 -16878.689190  20448.285488   -971.763984     96.485411                    
V 23  -1410.212374  -2642.550341 -31844.584438     -0.042403                    
P 24 -17893.571115  -6466.972330  18437.854675    133.525909                    
V 24  -8372.217046 -22422.683984 -15383.009287      0.179383                    
P 25 -19612.153522  16146.035728   6997.226930    156.404838                    
V 25   3643.989936  -9046.712775  30225.468703      0.068791                    
P 26   2273.763859  19074.891885 -18284.760688     98.748070                    
V 26 -15543.168218  17412.070453  16552.171453      0.048113                    
P 27  19899.691542  12325.427365 -13074.474440   -147.609802                    
V 27 -16183.041402  -1114.713900 -25682.893682     -0.062030                    
P 28   5937.298185 -21086.470336  15698.564470    554.149660                    
V 28  14338.586481 -12320.527818 -22593.416034     -0.063061                    
P 29 -20479.921616   5900.732886 -15933.144232   -364.594487                    
V 29 -19160.202932  -6135.434034  22374.572688     -0.062297                    
P 30   1323.494256 -23462.415161 -12081.209969   -439.325028                    
V 30   8041.581174  13714.752466 -25851.332988     -0.046704                    
P 31   7408.899112  25177.056293   1667.055560   -123.231945                    
V 31  -3928.100562  -1028.394792  31857.489360     -0.021528                    
P 32  -1208.909513  15341.042825  21767.715947     18.367003                    
V 32 -27034.404144  -4305.631913   1372.483695     -0.013821                    
EOF
